{"type": "FeatureCollection", "features": [{"type": "Feature", "properties": {"norad_id": 25730, "name": "FENGYUN 1C", "group": "fengyun-1c-debris", "lat": 59.39459017113183, "lon": 52.18162286188816, "alt_km": 792.7434646233751, "timestamp": "2025-12-27T06:41:31.197372+00:00", "meta": {"OBJECT_NAME": "FENGYUN 1C", "OBJECT_ID": "1999-025A", "EPOCH": "2025-12-26T21:59:25.124928", "MEAN_MOTION": 14.26127405, "ECCENTRICITY": 0.00101132, "INCLINATION": 98.8817, "RA_OF_ASC_NODE": 67.1424, "ARG_OF_PERICENTER": 29.7058, "MEAN_ANOMALY": 330.4694, "EPHEMERIS_TYPE": 0, "CLASSIFICATION_TYPE": "U", "NORAD_CAT_ID": 25730, "ELEMENT_SET_NO": 999, "REV_AT_EPOCH": 37339, "BSTAR": 0.0013770295, "MEAN_MOTION_DOT": 3.251e-05, "MEAN_MOTION_DDOT": 0}, "tle": {"line1": "1 25730U 99025A   25360.91626302  .00003251  00000+0  13770-2 0  9997", "line2": "2 25730  98.8817  67.1424 0010113  29.7058 330.4694 14.26127405373397"}}, "geometry": {"type": "Point", "coordinates": [52.18162286188816, 59.39459017113183]}}, {"type": "Feature", "properties": {"norad_id": 29733, "name": "FENGYUN 1C DEB", "group": "fengyun-1c-debris", "lat": 71.96363821972716, "lon": 25.20203191525095, "alt_km": 1275.4029813580582, "timestamp": "2025-12-27T06:41:31.197392+00:00", "meta": {"OBJECT_NAME": "FENGYUN 1C DEB", "OBJECT_ID": "1999-025X", "EPOCH": "2025-12-26T02:40:10.134624", "MEAN_MOTION": 12.96493606, "ECCENTRICITY": 0.05696145, "INCLINATION": 99.2235, "RA_OF_ASC_NODE": 54.1443, "ARG_OF_PERICENTER": 171.2777, "MEAN_ANOMALY": 222.752, "EPHEMERIS_TYPE": 0, "CLASSIFICATION_TYPE": "U", "NORAD_CAT_ID": 29733, "ELEMENT_SET_NO": 999, "REV_AT_EPOCH": 89293, "BSTAR": 0.00070368021, "MEAN_MOTION_DOT": 3.92e-06, "MEAN_MOTION_DDOT": 0}, "tle": {"line1": "1 29733U 99025X   25360.11122841  .00000392  00000+0  70368-3 0  9995", "line2": "2 29733  99.2235  54.1443 0569614 171.2777 222.7520 12.96493606892937"}}, "geometry": {"type": "Point", "coordinates": [25.20203191525095, 71.96363821972716]}}, {"type": "Feature", "properties": {"norad_id": 29734, "name": "FENGYUN 1C DEB", "group": "fengyun-1c-debris", "lat": -5.862923196919859, "lon": -70.24292474308193, "alt_km": 842.1951187476807, "timestamp": "2025-12-27T06:41:31.197421+00:00", "meta": {"OBJECT_NAME": "FENGYUN 1C DEB", "OBJECT_ID": "1999-025Y", "EPOCH": "2025-12-26T17:50:29.658048", "MEAN_MOTION": 12.91382259, "ECCENTRICITY": 0.06155412, "INCLINATION": 99.1704, "RA_OF_ASC_NODE": 288.3589, "ARG_OF_PERICENTER": 339.946, "MEAN_ANOMALY": 44.4339, "EPHEMERIS_TYPE": 0, "CLASSIFICATION_TYPE": "U", "NORAD_CAT_ID": 29734, "ELEMENT_SET_NO": 999, "REV_AT_EPOCH": 88729, "BSTAR": 0.0040170497, "MEAN_MOTION_DOT": 2.47e-05, "MEAN_MOTION_DDOT": 0}, "tle": {"line1": "1 29734U 99025Y   25360.74339882  .00002470  00000+0  40170-2 0  9996", "line2": "2 29734  99.1704 288.3589 0615541 339.9460  44.4339 12.91382259887299"}}, "geometry": {"type": "Point", "coordinates": [-70.24292474308193, -5.862923196919859]}}, {"type": "Feature", "properties": {"norad_id": 29735, "name": "FENGYUN 1C DEB", "group": "fengyun-1c-debris", "lat": 41.15845129956113, "lon": 102.12863326509093, "alt_km": 819.3960818733412, "timestamp": "2025-12-27T06:41:31.197440+00:00", "meta": {"OBJECT_NAME": "FENGYUN 1C DEB", "OBJECT_ID": "1999-025Z", "EPOCH": "2025-12-26T11:09:38.909088", "MEAN_MOTION": 12.75077413, "ECCENTRICITY": 0.0697736, "INCLINATION": 99.3915, "RA_OF_ASC_NODE": 273.1329, "ARG_OF_PERICENTER": 144.6812, "MEAN_ANOMALY": 220.2637, "EPHEMERIS_TYPE": 0, "CLASSIFICATION_TYPE": "U", "NORAD_CAT_ID": 29735, "ELEMENT_SET_NO": 999, "REV_AT_EPOCH": 87590, "BSTAR": 0.0026025, "MEAN_MOTION_DOT": 1.488e-05, "MEAN_MOTION_DDOT": 0}, "tle": {"line1": "1 29735U 99025Z   25360.46503367  .00001488  00000+0  26025-2 0  9998", "line2": "2 29735  99.3915 273.1329 0697736 144.6812 220.2637 12.75077413875903"}}, "geometry": {"type": "Point", "coordinates": [102.12863326509093, 41.15845129956113]}}, {"type": "Feature", "properties": {"norad_id": 29736, "name": "FENGYUN 1C DEB", "group": "fengyun-1c-debris", "lat": 58.90431664281587, "lon": 161.95035671993972, "alt_km": 1556.8486569001388, "timestamp": "2025-12-27T06:41:31.197460+00:00", "meta": {"OBJECT_NAME": "FENGYUN 1C DEB", "OBJECT_ID": "1999-025AA", "EPOCH": "2025-12-26T23:24:43.377984", "MEAN_MOTION": 12.57515023, "ECCENTRICITY": 0.07241477, "INCLINATION": 99.4027, "RA_OF_ASC_NODE": 177.65, "ARG_OF_PERICENTER": 168.1586, "MEAN_ANOMALY": 327.6167, "EPHEMERIS_TYPE": 0, "CLASSIFICATION_TYPE": "U", "NORAD_CAT_ID": 29736, "ELEMENT_SET_NO": 999, "REV_AT_EPOCH": 86723, "BSTAR": 0.0020007113, "MEAN_MOTION_DOT": 8.8e-06, "MEAN_MOTION_DDOT": 0}, "tle": {"line1": "1 29736U 99025AA  25360.97550206  .00000880  00000+0  20007-2 0  9998", "line2": "2 29736  99.4027 177.6500 0724147 168.1586 327.6167 12.57515023867235"}}, "geometry": {"type": "Point", "coordinates": [161.95035671993972, 58.90431664281587]}}, {"type": "Feature", "properties": {"norad_id": 29737, "name": "FENGYUN 1C DEB", "group": "fengyun-1c-debris", "lat": -54.779578077663025, "lon": 120.10727058688764, "alt_km": 1723.3508961397101, "timestamp": "2025-12-27T06:41:31.197472+00:00", "meta": {"OBJECT_NAME": "FENGYUN 1C DEB", "OBJECT_ID": "1999-025AB", "EPOCH": "2025-12-26T20:11:18.448800", "MEAN_MOTION": 12.65699266, "ECCENTRICITY": 0.06962121, "INCLINATION": 99.5801, "RA_OF_ASC_NODE": 313.5818, "ARG_OF_PERICENTER": 107.8382, "MEAN_ANOMALY": 288.4315, "EPHEMERIS_TYPE": 0, "CLASSIFICATION_TYPE": "U", "NORAD_CAT_ID": 29737, "ELEMENT_SET_NO": 999, "REV_AT_EPOCH": 87047, "BSTAR": 0.0044084005, "MEAN_MOTION_DOT": 2.123e-05, "MEAN_MOTION_DDOT": 0}, "tle": {"line1": "1 29737U 99025AB  25360.84118575  .00002123  00000+0  44084-2 0  9997", "line2": "2 29737  99.5801 313.5818 0696212 107.8382 288.4315 12.65699266870475"}}, "geometry": {"type": "Point", "coordinates": [120.10727058688764, -54.779578077663025]}}, {"type": "Feature", "properties": {"norad_id": 29738, "name": "FENGYUN 1C DEB", "group": "fengyun-1c-debris", "lat": 24.000261174279217, "lon": 161.33478571228818, "alt_km": 1724.909697253138, "timestamp": "2025-12-27T06:41:31.197483+00:00", "meta": {"OBJECT_NAME": "FENGYUN 1C DEB", "OBJECT_ID": "1999-025AC", "EPOCH": "2025-12-26T21:02:13.665120", "MEAN_MOTION": 12.61105402, "ECCENTRICITY": 0.08653941, "INCLINATION": 99.4098, "RA_OF_ASC_NODE": 165.2396, "ARG_OF_PERICENTER": 263.8832, "MEAN_ANOMALY": 86.3106, "EPHEMERIS_TYPE": 0, "CLASSIFICATION_TYPE": "U", "NORAD_CAT_ID": 29738, "ELEMENT_SET_NO": 999, "REV_AT_EPOCH": 86395, "BSTAR": 0.0046164018, "MEAN_MOTION_DOT": 3.497e-05, "MEAN_MOTION_DDOT": 0}, "tle": {"line1": "1 29738U 99025AC  25360.87654705  .00003497  00000+0  46164-2 0  9997", "line2": "2 29738  99.4098 165.2396 0865394 263.8832  86.3106 12.61105402863956"}}, "geometry": {"type": "Point", "coordinates": [161.33478571228818, 24.000261174279217]}}, {"type": "Feature", "properties": {"norad_id": 29740, "name": "FENGYUN 1C DEB", "group": "fengyun-1c-debris", "lat": 41.54198141707481, "lon": 36.80725645591629, "alt_km": 957.581175431159, "timestamp": "2025-12-27T06:41:31.197494+00:00", "meta": {"OBJECT_NAME": "FENGYUN 1C DEB", "OBJECT_ID": "1999-025AE", "EPOCH": "2025-12-25T00:15:21.341952", "MEAN_MOTION": 12.08324151, "ECCENTRICITY": 0.09735117, "INCLINATION": 99.0459, "RA_OF_ASC_NODE": 207.0726, "ARG_OF_PERICENTER": 174.1661, "MEAN_ANOMALY": 187.1776, "EPHEMERIS_TYPE": 0, "CLASSIFICATION_TYPE": "U", "NORAD_CAT_ID": 29740, "ELEMENT_SET_NO": 999, "REV_AT_EPOCH": 83083, "BSTAR": 5.4899658e-05, "MEAN_MOTION_DOT": -3e-08, "MEAN_MOTION_DDOT": 0}, "tle": {"line1": "1 29740U 99025AE  25359.01066368 -.00000003  00000+0  54900-4 0  9996", "line2": "2 29740  99.0459 207.0726 0973511 174.1661 187.1776 12.08324151830832"}}, "geometry": {"type": "Point", "coordinates": [36.80725645591629, 41.54198141707481]}}, {"type": "Feature", "properties": {"norad_id": 29741, "name": "FENGYUN 1C DEB", "group": "fengyun-1c-debris", "lat": -18.90137052457145, "lon": -125.3451377829746, "alt_km": 1147.1480052354127, "timestamp": "2025-12-27T06:41:31.197510+00:00", "meta": {"OBJECT_NAME": "FENGYUN 1C DEB", "OBJECT_ID": "1999-025AF", "EPOCH": "2025-12-26T21:04:06.155328", "MEAN_MOTION": 12.00999185, "ECCENTRICITY": 0.10264631, "INCLINATION": 99.1725, "RA_OF_ASC_NODE": 231.1967, "ARG_OF_PERICENTER": 36.17, "MEAN_ANOMALY": 21.018, "EPHEMERIS_TYPE": 0, "CLASSIFICATION_TYPE": "U", "NORAD_CAT_ID": 29741, "ELEMENT_SET_NO": 999, "REV_AT_EPOCH": 52353, "BSTAR": 0.006133585, "MEAN_MOTION_DOT": 2.399e-05, "MEAN_MOTION_DDOT": 0}, "tle": {"line1": "1 29741U 99025AF  25360.87784902  .00002399  00000+0  61336-2 0  9992", "line2": "2 29741  99.1725 231.1967 1026463  36.1700  21.0180 12.00999185523530"}}, "geometry": {"type": "Point", "coordinates": [-125.3451377829746, -18.90137052457145]}}, {"type": "Feature", "properties": {"norad_id": 29748, "name": "FENGYUN 1C DEB", "group": "fengyun-1c-debris", "lat": 79.54220000744027, "lon": 177.62231164306644, "alt_km": 1865.099669782986, "timestamp": "2025-12-27T06:41:31.197521+00:00", "meta": {"OBJECT_NAME": "FENGYUN 1C DEB", "OBJECT_ID": "1999-025AN", "EPOCH": "2025-12-24T01:35:25.055808", "MEAN_MOTION": 11.90656496, "ECCENTRICITY": 0.08691967, "INCLINATION": 99.7818, "RA_OF_ASC_NODE": 286.0832, "ARG_OF_PERICENTER": 352.5635, "MEAN_ANOMALY": 6.319, "EPHEMERIS_TYPE": 0, "CLASSIFICATION_TYPE": "U", "NORAD_CAT_ID": 29748, "ELEMENT_SET_NO": 999, "REV_AT_EPOCH": 78868, "BSTAR": 0.11647721, "MEAN_MOTION_DOT": 0.00024365, "MEAN_MOTION_DDOT": 0}, "tle": {"line1": "1 29748U 99025AN  25358.06626222  .00024365  00000+0  11648+0 0  9992", "line2": "2 29748  99.7818 286.0832 0869196 352.5635   6.3190 11.90656496788684"}}, "geometry": {"type": "Point", "coordinates": [177.62231164306644, 79.54220000744027]}}]}